start=new Date('2023-04-26T00:00:00.000Z').valueOf();
sats=[{"REV_AT_EPOCH":"15804","NORAD_CAT_ID":"45744","ECCENTRICITY":"0.00018770","BSTAR":"0.00064221000000","MEAN_ELEMENT_THEORY":"SGP4","CLASSIFICATION_TYPE":"U","EPHEMERIS_TYPE":"0","TLE_LINE2":"2 45744  53.0517 267.0493 0001877 121.1808 238.9365 15.06410172158043","CENTER_NAME":"EARTH","SITE":"AFETR","REF_FRAME":"TEME","DECAY_DATE":null,"COUNTRY_CODE":"US","PERIAPSIS":"545.883","ARG_OF_PERICENTER":"121.1808","LAUNCH_DATE":"2020-06-13","GP_ID":"230739840","MEAN_MOTION_DDOT":"0.0000000000000","INCLINATION":"53.0517","OBJECT_TYPE":"PAYLOAD","RCS_SIZE":"LARGE","OBJECT_ID":"2020-038Q","FILE":"3894092","MEAN_MOTION":"15.06410172","TLE_LINE1":"1 45744U 20038Q   23115.40188080  .00009300  00000-0  64221-3 0  9998","ELEMENT_SET_NO":"999","OBJECT_NAME":"STARLINK-1500","MEAN_MOTION_DOT":"0.00009300","TIME_SYSTEM":"UTC","EPOCH":"2023-04-25T09:38:42.501120","PERIOD":"95.591","SEMIMAJOR_AXIS":"6925.317","MEAN_ANOMALY":"238.9365","APOAPSIS":"548.482","RA_OF_ASC_NODE":"267.0493"},{"NORAD_CAT_ID":"45745","REV_AT_EPOCH":"15796","BSTAR":"0.00197780000000","ECCENTRICITY":"0.00009120","SITE":"AFETR","CLASSIFICATION_TYPE":"U","MEAN_ELEMENT_THEORY":"SGP4","EPHEMERIS_TYPE":"0","TLE_LINE2":"2 45745  53.0543 269.1832 0000912 105.4826 254.6264 15.06422719157960","CENTER_NAME":"EARTH","REF_FRAME":"TEME","DECAY_DATE":null,"COUNTRY_CODE":"US","ARG_OF_PERICENTER":"105.4826","LAUNCH_DATE":"2020-06-13","PERIAPSIS":"546.512","MEAN_MOTION_DDOT":"0.0000000000000","GP_ID":"230739590","OBJECT_TYPE":"PAYLOAD","OBJECT_ID":"2020-038R","RCS_SIZE":"LARGE","INCLINATION":"53.0543","FILE":"3894092","MEAN_MOTION":"15.06422719","TLE_LINE1":"1 45745U 20038R   23114.92639757  .00029319  00000-0  19778-2 0  9995","ELEMENT_SET_NO":"999","OBJECT_NAME":"STARLINK-1503","MEAN_MOTION_DOT":"0.00029319","TIME_SYSTEM":"UTC","EPOCH":"2023-04-24T22:14:00.750048","APOAPSIS":"547.776","PERIOD":"95.591","SEMIMAJOR_AXIS":"6925.279","MEAN_ANOMALY":"254.6264","RA_OF_ASC_NODE":"269.1832"},{"FILE":"3894092","ELEMENT_SET_NO":"999","OBJECT_NAME":"STARLINK-1504","TLE_LINE1":"1 45746U 20038S   23115.53829673  .00024113  00000-0  16367-2 0  9990","MEAN_MOTION":"15.06297378","EPOCH":"2023-04-25T12:55:08.837472","TIME_SYSTEM":"UTC","MEAN_MOTION_DOT":"0.00024113","RA_OF_ASC_NODE":"266.4439","APOAPSIS":"548.473","SEMIMAJOR_AXIS":"6925.663","MEAN_ANOMALY":"279.2572","PERIOD":"95.599","BSTAR":"0.00163670000000","ECCENTRICITY":"0.00013650","NORAD_CAT_ID":"45746","REV_AT_EPOCH":"15805","COUNTRY_CODE":"US","REF_FRAME":"TEME","DECAY_DATE":null,"SITE":"AFETR","TLE_LINE2":"2 45746  53.0545 266.4439 0001365  80.8572 279.2572 15.06297378158050","CENTER_NAME":"EARTH","CLASSIFICATION_TYPE":"U","MEAN_ELEMENT_THEORY":"SGP4","EPHEMERIS_TYPE":"0","LAUNCH_DATE":"2020-06-13","ARG_OF_PERICENTER":"80.8572","PERIAPSIS":"546.583","OBJECT_ID":"2020-038S","RCS_SIZE":"LARGE","OBJECT_TYPE":"PAYLOAD","INCLINATION":"53.0545","MEAN_MOTION_DDOT":"0.0000000000000","GP_ID":"230738340"},{"APOAPSIS":"548.126","SEMIMAJOR_AXIS":"6925.417","MEAN_ANOMALY":"265.5887","PERIOD":"95.594","RA_OF_ASC_NODE":"266.4233","TIME_SYSTEM":"UTC","MEAN_MOTION_DOT":"-0.00001075","EPOCH":"2023-04-25T13:00:25.096032","MEAN_MOTION":"15.06377673","OBJECT_NAME":"STARLINK-1506","ELEMENT_SET_NO":"999","TLE_LINE1":"1 45747U 20038T   23115.54195713 -.00001075  00000-0 -53308-4 0  9995","FILE":"3894092","MEAN_MOTION_DDOT":"0.0000000000000","GP_ID":"230739091","RCS_SIZE":"LARGE","OBJECT_ID":"2020-038T","OBJECT_TYPE":"PAYLOAD","INCLINATION":"53.0540","LAUNCH_DATE":"2020-06-13","ARG_OF_PERICENTER":"94.5242","PERIAPSIS":"546.438","SITE":"AFETR","CENTER_NAME":"EARTH","TLE_LINE2":"2 45747  53.0540 266.4233 0001218  94.5242 265.5887 15.06377673158066","MEAN_ELEMENT_THEORY":"SGP4","EPHEMERIS_TYPE":"0","CLASSIFICATION_TYPE":"U","COUNTRY_CODE":"US","DECAY_DATE":null,"REF_FRAME":"TEME","NORAD_CAT_ID":"45747","REV_AT_EPOCH":"15806","BSTAR":"-0.00005330800000","ECCENTRICITY":"0.00012180"},{"MEAN_MOTION_DDOT":"0.0000000000000","GP_ID":"230739340","RCS_SIZE":"LARGE","OBJECT_ID":"2020-038U","OBJECT_TYPE":"PAYLOAD","INCLINATION":"53.0538","LAUNCH_DATE":"2020-06-13","ARG_OF_PERICENTER":"104.3390","PERIAPSIS":"546.572","SITE":"AFETR","CENTER_NAME":"EARTH","TLE_LINE2":"2 45748  53.0538 268.2650 0000945 104.3390 255.7704 15.06395725157995","EPHEMERIS_TYPE":"0","CLASSIFICATION_TYPE":"U","MEAN_ELEMENT_THEORY":"SGP4","COUNTRY_CODE":"US","DECAY_DATE":null,"REF_FRAME":"TEME","NORAD_CAT_ID":"45748","REV_AT_EPOCH":"15799","BSTAR":"0.00162510000000","ECCENTRICITY":"0.00009450","APOAPSIS":"547.881","MEAN_ANOMALY":"255.7704","SEMIMAJOR_AXIS":"6925.362","PERIOD":"95.592","RA_OF_ASC_NODE":"268.2650","TIME_SYSTEM":"UTC","MEAN_MOTION_DOT":"0.00024004","EPOCH":"2023-04-25T03:09:54.017280","MEAN_MOTION":"15.06395725","OBJECT_NAME":"STARLINK-1507","ELEMENT_SET_NO":"999","TLE_LINE1":"1 45748U 20038U   23115.13187520  .00024004  00000-0  16251-2 0  9997","FILE":"3894092"},{"ARG_OF_PERICENTER":"113.9610","LAUNCH_DATE":"2020-06-13","PERIAPSIS":"546.110","MEAN_MOTION_DDOT":"0.0000000000000","GP_ID":"230740091","OBJECT_TYPE":"PAYLOAD","RCS_SIZE":"LARGE","OBJECT_ID":"2020-038W","INCLINATION":"53.0537","NORAD_CAT_ID":"45750","REV_AT_EPOCH":"15832","BSTAR":"0.00018874000000","ECCENTRICITY":"0.00014110","SITE":"AFETR","MEAN_ELEMENT_THEORY":"SGP4","CLASSIFICATION_TYPE":"U","EPHEMERIS_TYPE":"0","CENTER_NAME":"EARTH","TLE_LINE2":"2 45750  53.0537 247.2511 0001411 113.9610 246.1527 15.06441366158328","DECAY_DATE":null,"REF_FRAME":"TEME","COUNTRY_CODE":"US","MEAN_MOTION_DOT":"0.00002534","TIME_SYSTEM":"UTC","EPOCH":"2023-04-25T08:37:36.556896","APOAPSIS":"548.064","PERIOD":"95.590","SEMIMAJOR_AXIS":"6925.222","MEAN_ANOMALY":"246.1527","RA_OF_ASC_NODE":"247.2511","FILE":"3894092","MEAN_MOTION":"15.06441366","TLE_LINE1":"1 45750U 20038W   23115.35945089  .00002534  00000-0  18874-3 0  9994","ELEMENT_SET_NO":"999","OBJECT_NAME":"STARLINK-1391"},{"MEAN_MOTION":"15.06420970","OBJECT_NAME":"STARLINK-1464","ELEMENT_SET_NO":"999","TLE_LINE1":"1 45751U 20038X   23115.35578755  .00058553  00000-0  39151-2 0  9999","FILE":"3894092","MEAN_ANOMALY":"262.7518","SEMIMAJOR_AXIS":"6925.284","PERIOD":"95.591","APOAPSIS":"547.875","RA_OF_ASC_NODE":"247.2573","TIME_SYSTEM":"UTC","MEAN_MOTION_DOT":"0.00058553","EPOCH":"2023-04-25T08:32:20.044320","TLE_LINE2":"2 45751  53.0528 247.2573 0001048  97.3590 262.7518 15.06420970158327","CENTER_NAME":"EARTH","MEAN_ELEMENT_THEORY":"SGP4","CLASSIFICATION_TYPE":"U","EPHEMERIS_TYPE":"0","SITE":"AFETR","COUNTRY_CODE":"US","REF_FRAME":"TEME","DECAY_DATE":null,"REV_AT_EPOCH":"15832","NORAD_CAT_ID":"45751","ECCENTRICITY":"0.00010480","BSTAR":"0.00391510000000","GP_ID":"230738841","MEAN_MOTION_DDOT":"0.0000000000000","INCLINATION":"53.0528","OBJECT_ID":"2020-038X","RCS_SIZE":"LARGE","OBJECT_TYPE":"PAYLOAD","PERIAPSIS":"546.424","LAUNCH_DATE":"2020-06-13","ARG_OF_PERICENTER":"97.3590"},{"INCLINATION":"53.0526","OBJECT_TYPE":"PAYLOAD","RCS_SIZE":"LARGE","OBJECT_ID":"2020-038Z","GP_ID":"230738591","MEAN_MOTION_DDOT":"0.0000000000000","PERIAPSIS":"546.050","ARG_OF_PERICENTER":"63.0161","LAUNCH_DATE":"2020-06-13","REF_FRAME":"TEME","DECAY_DATE":null,"COUNTRY_CODE":"US","EPHEMERIS_TYPE":"0","MEAN_ELEMENT_THEORY":"SGP4","CLASSIFICATION_TYPE":"U","TLE_LINE2":"2 45753  53.0526 248.4051 0001454  63.0161 297.0976 15.06451137158289","CENTER_NAME":"EARTH","SITE":"AFETR","ECCENTRICITY":"0.00014540","BSTAR":"0.00256470000000","REV_AT_EPOCH":"15828","NORAD_CAT_ID":"45753","RA_OF_ASC_NODE":"248.4051","PERIOD":"95.589","MEAN_ANOMALY":"297.0976","SEMIMAJOR_AXIS":"6925.192","APOAPSIS":"548.064","EPOCH":"2023-04-25T02:26:07.675872","MEAN_MOTION_DOT":"0.00038180","TIME_SYSTEM":"UTC","TLE_LINE1":"1 45753U 20038Z   23115.10147773  .00038180  00000-0  25647-2 0  9995","ELEMENT_SET_NO":"999","OBJECT_NAME":"STARLINK-1476","MEAN_MOTION":"15.06451137","FILE":"3894092"},{"TIME_SYSTEM":"UTC","MEAN_MOTION_DOT":"0.00019410","EPOCH":"2023-04-25T08:53:35.074176","APOAPSIS":"548.176","SEMIMAJOR_AXIS":"6925.246","MEAN_ANOMALY":"313.3250","PERIOD":"95.590","RA_OF_ASC_NODE":"247.1943","FILE":"3894092","MEAN_MOTION":"15.06433620","ELEMENT_SET_NO":"999","OBJECT_NAME":"STARLINK-1477","TLE_LINE1":"1 45754U 20038AA  23115.37054484  .00019410  00000-0  13172-2 0  9996","LAUNCH_DATE":"2020-06-13","ARG_OF_PERICENTER":"46.7868","PERIAPSIS":"546.045","MEAN_MOTION_DDOT":"0.0000000000000","GP_ID":"230739841","RCS_SIZE":"LARGE","OBJECT_ID":"2020-038AA","OBJECT_TYPE":"PAYLOAD","INCLINATION":"53.0539","NORAD_CAT_ID":"45754","REV_AT_EPOCH":"15832","BSTAR":"0.00131720000000","ECCENTRICITY":"0.00015390","SITE":"AFETR","TLE_LINE2":"2 45754  53.0539 247.1943 0001539  46.7868 313.3250 15.06433620158325","CENTER_NAME":"EARTH","EPHEMERIS_TYPE":"0","MEAN_ELEMENT_THEORY":"SGP4","CLASSIFICATION_TYPE":"U","COUNTRY_CODE":"US","DECAY_DATE":null,"REF_FRAME":"TEME"},{"EPHEMERIS_TYPE":"0","MEAN_ELEMENT_THEORY":"SGP4","CLASSIFICATION_TYPE":"U","CENTER_NAME":"EARTH","TLE_LINE2":"2 45755  53.0538 247.1125 0001525  89.0176 271.0987 15.06431865158319","SITE":"AFETR","REF_FRAME":"TEME","DECAY_DATE":null,"COUNTRY_CODE":"US","REV_AT_EPOCH":"15831","NORAD_CAT_ID":"45755","BSTAR":"-0.00076856000000","ECCENTRICITY":"0.00015250","GP_ID":"230739591","MEAN_MOTION_DDOT":"0.0000000000000","INCLINATION":"53.0538","OBJECT_TYPE":"PAYLOAD","OBJECT_ID":"2020-038AB","RCS_SIZE":"LARGE","PERIAPSIS":"546.060","ARG_OF_PERICENTER":"89.0176","LAUNCH_DATE":"2020-06-13","MEAN_MOTION":"15.06431865","TLE_LINE1":"1 45755U 20038AB  23115.38897891 -.00011721  00000-0 -76856-3 0  9993","ELEMENT_SET_NO":"999","OBJECT_NAME":"STARLINK-1478","FILE":"3894092","PERIOD":"95.590","MEAN_ANOMALY":"271.0987","SEMIMAJOR_AXIS":"6925.251","APOAPSIS":"548.172","RA_OF_ASC_NODE":"247.1125","MEAN_MOTION_DOT":"-0.00011721","TIME_SYSTEM":"UTC","EPOCH":"2023-04-25T09:20:07.777824"}];
